NORAD_CAT_ID,OBJECT_NAME,OBJECT_TYPE,EPOCH,MEAN_MOTION,ECCENTRICITY,INCLINATION,RA_OF_ASC_NODE,ARG_OF_PERICENTER,MEAN_ANOMALY,BSTAR,MEAN_MOTION_DOT,MEAN_MOTION_DDOT,TLE_LINE0,TLE_LINE1,TLE_LINE2,SEMIMAJOR_AXIS,PERIOD,APOGEE,PERIGEE,DECAYED
53018.0,STARLINK-4279,PAYLOAD,2022-10-15 06:00:00,15.088381699999998,0.0001448,53.2176,257.1542,46.0262,98.1049,-0.00017168,-3.019e-05,0.0,0 STARLINK-4279,1 53018U 22076AJ  22288.25001157 -.00003019  00000-0 -17168-3 0  9998,2 53018  53.2176 257.1542 0001448  46.0262  98.1049 15.08838170 16049,6917.886,95.438,540.753,538.749,0.0
53018.0,STARLINK-4279,PAYLOAD,2022-10-15 14:00:01,15.08825081,0.0001756,53.2166,255.6662,48.548,107.1635,-0.00069476,-0.00011324,0.0,0 STARLINK-4279,1 53018U 22076AJ  22288.58334491 -.00011324  00000-0 -69476-3 0  9991,2 53018  53.2166 255.6662 0001756  48.5480 107.1635 15.08825081  1307,6917.926,95.438,541.006,538.576,0.0
53018.0,STARLINK-4279,PAYLOAD,2022-10-15 22:00:01,15.08827027,0.0001699999999999,53.2168,254.1693,55.2202,112.124,0.0019942999999999,0.00031583,0.0,0 STARLINK-4279,1 53018U 22076AJ  22288.91668981  .00031583  00000-0  19943-2 0  9992,2 53018  53.2168 254.1693 0001700  55.2202 112.1240 15.08827027  1303,6917.92,95.438,540.961,538.609,0.0
53018.0,STARLINK-4279,PAYLOAD,2022-10-16 14:00:01,15.088419,0.0001696,53.2161,251.1774,48.8105,141.6552,-0.00093412,-0.00015125,0.0,0 STARLINK-4279,1 53018U 22076AJ  22289.58334491 -.00015125  00000-0 -93412-3 0  9992,2 53018  53.2161 251.1774 0001696  48.8105 141.6552 15.08841900 16245,6917.875,95.437,540.913,538.566,0.0
53018.0,STARLINK-4279,PAYLOAD,2022-10-16 22:00:00,15.08851757,0.0001641,53.2163,249.6789,55.6747,146.3773,0.00037504,5.688e-05,0.0,0 STARLINK-4279,1 53018U 22076AJ  22289.91667824  .00005688  00000-0  37504-3 0  9999,2 53018  53.2163 249.6789 0001641  55.6747 146.3773 15.08851757  1302,6917.844,95.437,540.845,538.5740000000002,0.0
53018.0,STARLINK-4279,PAYLOAD,2022-10-17 06:00:00,15.08823462,0.0001795,53.2162,248.1848,46.1963,167.4721,0.0014817,0.00023361,0.0,0 STARLINK-4279,1 53018U 22076AJ  22290.25001157  .00023361  00000-0  14817-2 0  9998,2 53018  53.2162 248.1848 0001795  46.1963 167.4721 15.08823462 16345,6917.931,95.439,541.038,538.554,0.0
53018.0,STARLINK-4279,PAYLOAD,2022-10-17 14:00:01,15.08855466,0.0001666999999999,53.2163,246.6865,47.7192,177.5336,-0.00069139,-0.00011279,0.0,0 STARLINK-4279,1 53018U 22076AJ  22290.58334491 -.00011279  00000-0 -69139-3 0  9999,2 53018  53.2163 246.6865 0001667  47.7192 177.5336 15.08855466  1300,6917.833000000001,95.437,540.851,538.545,0.0
53018.0,STARLINK-4279,PAYLOAD,2022-10-17 22:00:00,15.08867581,0.0001699999999999,53.2161,245.1898,55.9278,180.9373,-0.0017322,-0.00027771,0.0,0 STARLINK-4279,1 53018U 22076AJ  22290.91667824 -.00027771  00000-0 -17322-2 0  9995,2 53018  53.2161 245.1898 0001700  55.9278 180.9373 15.08867581  1302,6917.795999999999,95.436,540.837,538.485,0.0
53018.0,STARLINK-4279,PAYLOAD,2022-10-18 08:00:01,15.08826678,0.0001788,53.2166,243.3174,51.878,289.5123,-0.0015668,-0.00025128,0.0,0 STARLINK-4279,1 53018U 22076AJ  22291.33334491 -.00025128  00000-0 -15668-2 0  9998,2 53018  53.2166 243.3174 0001788  51.8780 289.5123 15.08826678 16502,6917.920999999999,95.438,541.023,538.549,0.0
53018.0,STARLINK-4279,PAYLOAD,2022-10-18 14:00:01,15.08833841,0.0001751,53.2162,242.199,49.154,210.8949,-0.00047348,-7.814e-05,0.0,0 STARLINK-4279,1 53018U 22076AJ  22291.58334491 -.00007814  00000-0 -47348-3 0  9998,2 53018  53.2162 242.1990 0001751  49.1540 210.8949 15.08833841  1300,6917.899,95.438,540.976,538.553,0.0
53018.0,STARLINK-4279,PAYLOAD,2022-10-18 22:00:00,15.08845026,0.0001743,53.2163,240.7024,53.8463,217.7784,0.00065298,0.00010121,0.0,0 STARLINK-4279,1 53018U 22076AJ  22291.91667824  .00010121  00000-0  65298-3 0  9991,2 53018  53.2163 240.7024 0001743  53.8463 217.7784 15.08845026  1301,6917.865,95.437,540.936,538.524,0.0
53018.0,STARLINK-4279,PAYLOAD,2022-10-19 14:00:01,15.08838831,0.0001714,53.2166,237.7098,48.3023,246.5231,-5.8483e-05,-1.219e-05,0.0,0 STARLINK-4279,1 53018U 22076AJ  22292.58334491 -.00001219  00000-0 -58483-4 0  9995,2 53018  53.2166 237.7098 0001714  48.3023 246.5231 15.08838831 16691,6917.884,95.438,540.935,538.563,0.0
53018.0,STARLINK-4279,PAYLOAD,2022-10-19 22:00:00,15.08865357,0.0001679,53.2168,236.2132,52.0149,254.3961,-0.001083,-0.00017495,0.0,0 STARLINK-4279,1 53018U 22076AJ  22292.91667824 -.00017495  00000-0 -10830-2 0  9996,2 53018  53.2168 236.2132 0001679  52.0149 254.3961 15.08865357  1309,6917.803000000001,95.436,540.8290000000002,538.506,0.0
53018.0,STARLINK-4279,PAYLOAD,2022-10-20 14:00:01,15.08835999,0.0001732,53.2172,233.219,49.3203,280.2945,-0.002312,-0.00036892,0.0,0 STARLINK-4279,1 53018U 22076AJ  22293.58334491 -.00036892  00000-0 -23120-2 0  9999,2 53018  53.2172 233.2190 0001732  49.3203 280.2945 15.08835999  1304,6917.893,95.438,540.956,538.559,0.0
53018.0,STARLINK-4279,PAYLOAD,2022-10-20 22:00:00,15.08823103,0.0001754,53.2173,231.723,53.9229,287.2399,-0.00055503,-9.106e-05,0.0,0 STARLINK-4279,1 53018U 22076AJ  22293.91667824 -.00009106  00000-0 -55503-3 0  9994,2 53018  53.2173 231.7230 0001754  53.9229 287.2399 15.08823103  1300,6917.932,95.439,541.01,538.5840000000002,0.0
53018.0,STARLINK-4279,PAYLOAD,2022-10-21 06:00:00,15.08835718,0.0001998,53.2174,230.2194,43.4585,309.3336,0.00014902,2.084e-05,0.0,0 STARLINK-4279,1 53018U 22076AJ  22294.25001157  .00002084  00000-0  14902-3 0  9997,2 53018  53.2174 230.2194 0001998  43.4585 309.3336 15.08835718 16941,6917.893,95.438,541.141,538.376,0.0
53018.0,STARLINK-4279,PAYLOAD,2022-10-21 14:00:01,15.08844257,0.0001624,53.2174,228.7296,48.8049,315.6293,-0.0022335,-0.00035663,0.0,0 STARLINK-4279,1 53018U 22076AJ  22294.58334491 -.00035663  00000-0 -22335-2 0  9992,2 53018  53.2174 228.7296 0001624  48.8049 315.6293 15.08844257  1300,6917.8669999999975,95.437,540.856,538.609,0.0
53018.0,STARLINK-4279,PAYLOAD,2022-10-21 22:00:00,15.08843486,0.0001678,53.2175,227.2352,52.3071,323.7147,-0.00052752,-8.675e-05,0.0,0 STARLINK-4279,1 53018U 22076AJ  22294.91667824 -.00008675  00000-0 -52752-3 0  9998,2 53018  53.2175 227.2352 0001678  52.3071 323.7147 15.08843486  1303,6917.87,95.437,540.896,538.5740000000002,0.0
53018.0,STARLINK-4279,PAYLOAD,2022-10-22 08:00:01,15.0884201,0.0001771999999999,53.2169,225.3658,45.3274,75.1864,-0.0010209,-0.000165,0.0,0 STARLINK-4279,1 53018U 22076AJ  22295.33334491 -.00016500  00000-0 -10209-2 0  9992,2 53018  53.2169 225.3658 0001772  45.3274  75.1864 15.08842010 17118,6917.874,95.437,540.965,538.513,0.0
53018.0,STARLINK-4279,PAYLOAD,2022-10-22 14:00:01,15.08813046,0.0001578,53.2172,224.2421,50.0518,349.165,0.001503,0.00023696,0.0,0 STARLINK-4279,1 53018U 22076AJ  22295.58334491  .00023696  00000-0  15030-2 0  9998,2 53018  53.2172 224.2421 0001578  50.0518 349.1650 15.08813046  1304,6917.9630000000025,95.439,540.919,538.736,0.0
53018.0,STARLINK-4279,PAYLOAD,2022-10-22 22:00:00,15.08857145,0.0001606,53.2173,222.7464,51.896,358.8927,-0.00036186,-6.045e-05,0.0,0 STARLINK-4279,1 53018U 22076AJ  22295.91667824 -.00006045  00000-0 -36186-3 0  9991,2 53018  53.2173 222.7464 0001606  51.8960 358.8927 15.08857145  1309,6917.828,95.436,540.804,538.582,0.0
53018.0,STARLINK-4279,PAYLOAD,2022-10-23 00:00:02,15.0885672,0.0001654,53.2172,222.3727,49.9484,93.8068,-0.00044165,-7.313e-05,0.0,0 STARLINK-4279,1 53018U 22076AJ  22296.00002315 -.00007313  00000-0 -44165-3 0  9995,2 53018  53.2172 222.3727 0001654  49.9484  93.8068 15.08856720 17215,6917.829000000002,95.436,540.8380000000002,538.55,0.0
53018.0,STARLINK-4279,PAYLOAD,2022-10-23 14:00:01,15.08832198,0.0001528,53.2171,219.7532,49.9341,24.0985,0.0022933,0.00036391,0.0,0 STARLINK-4279,1 53018U 22076AJ  22296.58334491  .00036391  00000-0  22933-2 0  9995,2 53018  53.2171 219.7532 0001528  49.9341  24.0985 15.08832198  1300,6917.904,95.438,540.826,538.712,0.0
53018.0,STARLINK-4279,PAYLOAD,2022-10-23 22:00:00,15.08886299,0.0001639,53.2171,218.2575,51.0619,34.561,-0.0051388999999999,-0.00081255,0.0,0 STARLINK-4279,1 53018U 22076AJ  22296.91667824 -.00081255  00000-0 -51389-2 0  9999,2 53018  53.2171 218.2575 0001639  51.0619  34.5610 15.08886299  1308,6917.739000000001,95.435,540.738,538.47,0.0
53018.0,STARLINK-4279,PAYLOAD,2022-10-24 06:00:00,15.08818142,0.0001776,53.2168,216.7623,45.2001,52.0453,-0.0023134,-0.00036896,0.0,0 STARLINK-4279,1 53018U 22076AJ  22297.25001157 -.00036896  00000-0 -23134-2 0  9996,2 53018  53.2168 216.7623 0001776  45.2001  52.0453 15.08818142 17391,6917.946999999999,95.439,541.0409999999998,538.5840000000002,0.0
53018.0,STARLINK-4279,PAYLOAD,2022-10-24 14:00:01,15.08747141,0.0001621999999999,53.2169,215.2643,51.8236,56.9876,0.0038061,0.00060653,0.0,0 STARLINK-4279,1 53018U 22076AJ  22297.58334491  .00060653  00000-0  38061-2 0  9993,2 53018  53.2169 215.2643 0001622  51.8236  56.9876 15.08747141  1307,6918.1640000000025,95.443,541.151,538.9069999999998,0.0
53018.0,STARLINK-4279,PAYLOAD,2022-10-24 22:00:00,15.088162300000002,0.0001727,53.2169,213.7688,51.49,68.8202,-0.00015532,-2.758e-05,0.0,0 STARLINK-4279,1 53018U 22076AJ  22297.91667824 -.00002758  00000-0 -15532-3 0  9992,2 53018  53.2169 213.7688 0001727  51.4900  68.8202 15.08816230  1300,6917.953,95.439,541.013,538.623,0.0
53018.0,STARLINK-4279,PAYLOAD,2022-10-25 00:00:00,15.08818888,0.0001763,53.2168,213.3952,48.8279,164.3725,-0.00043438,-7.191e-05,0.0,0 STARLINK-4279,1 53018U 22076AJ  22298.00001157 -.00007191  00000-0 -43438-3 0  9996,2 53018  53.2168 213.3952 0001763  48.8279 164.3725 15.08818888 17511,6917.945,95.439,541.03,538.59,0.0
53018.0,STARLINK-4279,PAYLOAD,2022-10-25 14:00:01,15.08807458,0.0001698,53.2169,210.7756,50.3923,93.0538,0.0026311999999999,0.00041799,0.0,0 STARLINK-4279,1 53018U 22076AJ  22298.58334491  .00041799  00000-0  26312-2 0  9990,2 53018  53.2169 210.7756 0001698  50.3923  93.0538 15.08807458  1307,6917.98,95.44,541.02,538.67,0.0
